#cP2018  5  3  0  0  0.00000000      96 ORBIT IGS14 HLM  IGS
## 1999 345600.00000000   900.00000000 58241 0.0000000000000
+   32   G01G02G03G04G05G06G07G08G09G10G11G12G13G14G15G16G17
+        G18G19G20G21G22G23G24G25G26G27G28G29G30G31G32  0  0
+          0  0  0  0  0  0  0  0  0  0  0  0  0  0  0  0  0
+          0  0  0  0  0  0  0  0  0  0  0  0  0  0  0  0  0
+          0  0  0  0  0  0  0  0  0  0  0  0  0  0  0  0  0
++         2  2  2  0  2  2  2  2  2  2  2  3  2  2  2  3  2
++         2  2  2  2  2  0  2  2  2  2  2  2  2  2  2  0  0
++         0  0  0  0  0  0  0  0  0  0  0  0  0  0  0  0  0
++         0  0  0  0  0  0  0  0  0  0  0  0  0  0  0  0  0
++         0  0  0  0  0  0  0  0  0  0  0  0  0  0  0  0  0
%c G  cc GPS ccc cccc cccc cccc cccc ccccc ccccc ccccc ccccc
%c cc cc ccc ccc cccc cccc cccc cccc ccccc ccccc ccccc ccccc
%f  1.2500000  1.025000000  0.00000000000  0.000000000000000
%f  0.0000000  0.000000000  0.00000000000  0.000000000000000
%i    0    0    0    0      0      0      0      0         0
%i    0    0    0    0      0      0      0      0         0
/* FINAL ORBIT COMBINATION FROM WEIGHTED AVERAGE OF:        
/* cod emr esa gfz grg jpl mit ngs sio                      
/* REFERENCED TO IGS TIME (IGST) AND TO WEIGHTED MEAN POLE: 
/* PCV:IGS14_2000 OL/AL:FES2004  NONE     Y  ORB:CMB CLK:CMB
*  2018  5  3 21  0  0.00000000
PG01  13232.162349 -12768.512514  18908.001658    -45.133692  5  4  4  96       
PG02 -13833.942601 -12101.343622 -18704.151255    126.083939  6  6  3 109       
PG03  23119.596060 -13008.466276   -309.125354     63.330783  5  5  4  85       
PG04   6657.158735  13366.181113 -22213.793320 999999.999999
PG05 -20646.694158  -1988.512210 -16806.241574     -8.627807  9  8  5  97       
PG06  -6919.181440 -23309.151943 -10622.323396    405.576358  6  6  3  96       
PG07   5855.217771 -24610.350969  -7068.903697    197.604411  3  3  6  68       
PG08  22476.442490   1880.166653  14193.031013   -100.004783  7  6  4  73       
PG09   5431.342187 -14570.686456 -21561.913209    512.979161  7  7  4  66       
PG10   1025.380090  16238.039290  21007.290872    182.908905  5  4  3  92       
PG11  13749.765257  -8691.575193  20451.881917   -736.822295  4  3  4 105       
PG12 -24382.368042   9995.438446   2112.163272    335.898563  7  7  5  31       
PG13 -22820.208933 -11370.349562   7325.999355    -94.731058  6  6  4 109       
PG14  18300.597854  18428.969835   6283.929819    -96.640348  9  9  6  75       
PG15 -22635.328604    462.458315  13976.715191   -354.704638  6  8  5 105       
PG16  20141.678378   3493.782529 -17342.210113     25.901438 10 10  8 101       
PG17 -11682.301540 -19397.731643  14364.741178   -101.354158  6 10  6  90       
PG18  15053.648348  -3507.736513  21131.137802      4.594189  5  4  5  99       
PG19 -17052.929043 -18763.221668   7292.649208   -439.072227  7  9  6  81       
PG20 -16564.607928  19040.780170   8064.130342    507.314457  5  5  5 119       
PG21  -1600.639636  26195.126693  -3299.774048   -399.643645  9  9  7  60       
PG22  24067.482361  -7593.242555   8519.638512   -379.338826  5  6  5  47       
PG23  18232.402066  -4923.969010 -18558.073678 999999.999999
PG24 -14417.437079   9238.453475  20115.917588    -49.286813  5  7  5 114       
PG25 -17141.906984  17394.891685 -10322.049079   -579.446459  6  7  4  94       
PG26  11668.900934  10688.629429 -21358.164347   -161.408892  5  6  2 110       
PG27  23628.922103  12180.835002   2452.838411    369.699405  5  4  4  94       
PG28   3464.336865 -16739.671802  20963.320377    712.013420  6  5  2  81       
PG29  -8856.427017  11760.292596 -22126.776838    456.020352  8  6  3  95       
PG30    230.594335 -26378.259103   2238.579981     78.081130  5  6  5  68       
PG31   7353.561600  22209.442807 -12127.010258    124.161175  8  8  5 117       
PG32  11621.288038  18900.418976  14696.789830   -513.930034  5  6  5  83       
*  2018  5  3 21 15  0.00000000
PG01  13370.044604 -10498.958347  20182.354450    -45.136179  5  4  4 107       
PG02 -13830.141395 -14258.710688 -17191.983206    126.073865  6  7  3  99       
PG03  23141.095126 -12718.071685   2545.774746     63.337500  5  5  4  92       
PG04   4487.563989  14549.296226 -21986.092073 999999.999999
PG05 -19037.670070  -3178.631120 -18434.135642     -8.627646  9  8  5  92       
PG06  -6730.132854 -24383.389788  -8020.046046    405.574383  6  6  3  98       
PG07   6128.872785 -23610.206064  -9720.614597    197.598991  2  2  6  81       
PG08  23692.823270   2739.095003  11892.649913   -100.005758  7  6  5  41       
PG09   7606.836411 -13402.823254 -21662.784914    512.979982  6  7  4  64       
PG10  -1031.353539  17367.923913  20066.856108    182.910820  5  5  3  67       
PG11  14802.262935  -6443.217469  20532.823596   -736.821929  4  4  4 107       
PG12 -24090.288402   9625.239119   4992.207895    335.896303  7  8  5  53       
PG13 -23248.162173 -11959.763368   4562.407338    -94.730681  6  6  4  89       
PG14  17485.498479  18151.551057   8951.935102    -96.640430  8  8  6  67       
PG15 -23893.322641   -390.531412  11778.054233   -354.704143  7  8  5  97       
PG16  18352.519254   4458.793393 -19003.707601     25.900384 10 10  8  90       
PG17 -10183.108345 -18602.345212  16451.389473   -101.351155  6  9  6  91       
PG18  15219.851284   -983.943123  21293.055482      4.598550  5  5  5  94       
PG19 -16093.859540 -18344.249426   9963.158107   -439.069557  7  9  6  82       
PG20 -17399.416619  19248.102500   5417.195117    507.315101  5  5  4 119       
PG21  -1946.389766  25589.355206  -6052.494463   -399.639406  8  8  7  83       
PG22  23339.599970  -6721.670871  10990.653665   -379.350469  6  6  5  53       
PG23  19986.953887  -3801.909018 -17011.645595 999999.999999
PG24 -14649.543074   6864.850433  20904.363130    -49.286892  6  7  5 111       
PG25 -18120.545794  17728.609804  -7680.782546   -579.451882  6  7  4 112       
PG26   9592.152191  12008.576993 -21676.243918   -161.397314  5  5  3  66       
PG27  23646.217821  12404.687582   -417.420525    369.698952  5  3  4  97       
PG28   5469.312129 -17642.196109  19726.113932    712.016225  6  4  2  85       
PG29 -10957.469873  10393.336826 -21867.136008    456.014574  8  5  3  96       
PG30    547.848483 -26460.950094   -591.730289     78.077417  5  6  5  66       
PG31   7090.235888  23468.341479  -9630.490364    124.158444  8  8  5 110       
PG32   9969.621303  18196.949727  16662.995416   -513.925962  5  5  5  81       
*  2018  5  3 21 30  0.00000000
PG01  13636.306818  -8116.679828  21102.597994    -45.138660  5  3  4 104       
PG02 -13910.188796 -16218.595291 -15374.076393    126.063523  7  7  2 100       
PG03  22911.845410 -12248.775205   5356.697741     63.344247  5  5  5  82       
PG04   2423.345258  15827.712294 -21387.790084 999999.999999
PG05 -17355.306431  -4544.768794 -19749.401728     -8.626674  9  7  4 102       
PG06  -6575.639385 -25163.788305  -5279.355753    405.572406  6  6  3  93       
PG07   6469.408213 -22330.993064 -12199.199017    197.593462  2  2  7  81       
PG08  24708.001077   3416.425456   9389.675147   -100.006658  7  6  5  55       
PG09   9830.232230 -12351.482240 -21391.964521    512.980802  7  7  4  63       
PG10  -2923.919495  18532.828014  18781.087098    182.912765  5  5  3  83       
PG11  15942.238886  -4249.980798  20242.319073   -736.821521  3  4  4 110       
PG12 -23540.631289   9072.581539   7784.921047    335.894437  7  8  6  64       
PG13 -23439.159714 -12353.372343   1720.093443    -94.730735  7  6  4  71       
PG14  16407.240682  17770.347239  11469.070210    -96.640609  8  7  5  58       
PG15 -24947.959537  -1086.566355   9378.508380   -354.703785  7  8  5  94       
PG16  16473.301503   5609.231757 -20346.592386     25.899242 10 10  8  57       
PG17  -8451.919825 -17788.688119  18263.683992   -101.347956  5  9  6  96       
PG18  15508.797581   1523.394239  21072.957132      4.602866  6  5  5  90       
PG19 -14858.666544 -17825.021550  12458.227329   -439.067226  7  8  6  94       
PG20 -17990.495461  19298.219370   2676.440276    507.315688  5  5  4 110       
PG21  -2364.885282  24693.228188  -8698.673156   -399.634831  8  8  6  93       
PG22  22441.616742  -5657.598977  13274.624556   -379.362107  7  6  6  48       
PG23  21617.718960  -2852.864670 -15171.129277 999999.999999
PG24 -15004.070394   4439.342712  21327.929706    -49.287358  6  7  5 119       
PG25 -18826.420331  17941.340303  -4906.272422   -579.457288  6  7  4 107       
PG26   7572.664354  13442.800216 -21621.848266   -161.385808  6  5  4  82       
PG27  23384.522666  12487.674583  -3280.619786    369.698408  5  4  5 107       
PG28   7287.147764 -18583.254503  18166.602881    712.019261  5  4  2  88       
PG29 -13087.420695   9170.431059 -21231.888451    456.009268  7  5  3  79       
PG30    867.088010 -26238.816099  -3411.753927     78.073685  5  6  5  82       
PG31   6879.069372  24444.766700  -6964.047440    124.156120  8  7  5  80       
PG32   8097.475378  17491.644581  18344.104171   -513.921939  5  5  5  84       
EOF
